CCSDS_OMM_VERS = 2.0
CREATION_DATE  = 
ORIGINATOR     = 

OBJECT_NAME    = STARLINK-36609
OBJECT_ID      = 2026-016X
CENTER_NAME    = EARTH
REF_FRAME      = TEME
TIME_SYSTEM    = UTC
MEAN_ELEMENT_THEORY = SGP/SGP4

EPOCH          = 2026-02-17T15:09:51.778656
MEAN_MOTION    = 15.75213048
ECCENTRICITY   = .00013954
INCLINATION    = 97.2832
RA_OF_ASC_NODE = 108.0923
ARG_OF_PERICENTER = 122.8610
MEAN_ANOMALY   = 237.2790

EPHEMERIS_TYPE = 0
CLASSIFICATION_TYPE = U
NORAD_CAT_ID   = 67582
ELEMENT_SET_NO = 999
REV_AT_EPOCH   = 364
BSTAR          = .64823432E-3
MEAN_MOTION_DOT = .9777E-3
MEAN_MOTION_DDOT = 0

CCSDS_OMM_VERS = 2.0
CREATION_DATE  = 
ORIGINATOR     = 

OBJECT_NAME    = STARLINK-36577
OBJECT_ID      = 2026-016Y
CENTER_NAME    = EARTH
REF_FRAME      = TEME
TIME_SYSTEM    = UTC
MEAN_ELEMENT_THEORY = SGP/SGP4

EPOCH          = 2026-02-17T14:27:13.368384
MEAN_MOTION    = 15.80901162
ECCENTRICITY   = .00021857
INCLINATION    = 97.2840
RA_OF_ASC_NODE = 108.1333
ARG_OF_PERICENTER = 66.0553
MEAN_ANOMALY   = 294.0944

EPHEMERIS_TYPE = 0
CLASSIFICATION_TYPE = U
NORAD_CAT_ID   = 67583
ELEMENT_SET_NO = 999
REV_AT_EPOCH   = 364
BSTAR          = .12022043E-2
MEAN_MOTION_DOT = .237443E-2
MEAN_MOTION_DDOT = 0

CCSDS_OMM_VERS = 2.0
CREATION_DATE  = 
ORIGINATOR     = 

OBJECT_NAME    = STARLINK-36419
OBJECT_ID      = 2026-016Z
CENTER_NAME    = EARTH
REF_FRAME      = TEME
TIME_SYSTEM    = UTC
MEAN_ELEMENT_THEORY = SGP/SGP4

EPOCH          = 2026-02-17T14:00:01.999872
MEAN_MOTION    = 15.75478233
ECCENTRICITY   = .0001719
INCLINATION    = 97.2849
RA_OF_ASC_NODE = 108.1207
ARG_OF_PERICENTER = 98.6433
MEAN_ANOMALY   = 166.5251

EPHEMERIS_TYPE = 0
CLASSIFICATION_TYPE = U
NORAD_CAT_ID   = 67584
ELEMENT_SET_NO = 999
REV_AT_EPOCH   = 481
BSTAR          = -.39459082E-2
MEAN_MOTION_DOT = -.558823E-2
MEAN_MOTION_DDOT = 0

CCSDS_OMM_VERS = 2.0
CREATION_DATE  = 
ORIGINATOR     = 

OBJECT_NAME    = STARLINK-36560
OBJECT_ID      = 2026-016AA
CENTER_NAME    = EARTH
REF_FRAME      = TEME
TIME_SYSTEM    = UTC
MEAN_ELEMENT_THEORY = SGP/SGP4

EPOCH          = 2026-02-17T12:47:50.440416
MEAN_MOTION    = 15.80854255
ECCENTRICITY   = .00023004
INCLINATION    = 97.2848
RA_OF_ASC_NODE = 108.0746
ARG_OF_PERICENTER = 34.5492
MEAN_ANOMALY   = 325.5925

EPHEMERIS_TYPE = 0
CLASSIFICATION_TYPE = U
NORAD_CAT_ID   = 67585
ELEMENT_SET_NO = 999
REV_AT_EPOCH   = 363
BSTAR          = .99431528E-3
MEAN_MOTION_DOT = .194984E-2
MEAN_MOTION_DDOT = 0

CCSDS_OMM_VERS = 2.0
CREATION_DATE  = 
ORIGINATOR     = 

OBJECT_NAME    = NAVSTAR 85 (USA 581)
OBJECT_ID      = 2026-017A
CENTER_NAME    = EARTH
REF_FRAME      = TEME
TIME_SYSTEM    = UTC
MEAN_ELEMENT_THEORY = SGP/SGP4

EPOCH          = 2026-02-17T12:56:41.465184
MEAN_MOTION    = 2.00561228
ECCENTRICITY   = .0000946
INCLINATION    = 55.0081
RA_OF_ASC_NODE = 93.5564
ARG_OF_PERICENTER = 45.2724
MEAN_ANOMALY   = 314.8210

EPHEMERIS_TYPE = 0
CLASSIFICATION_TYPE = U
NORAD_CAT_ID   = 67588
ELEMENT_SET_NO = 999
REV_AT_EPOCH   = 42921
BSTAR          = 0
MEAN_MOTION_DOT = .28E-6
MEAN_MOTION_DDOT = 0

CCSDS_OMM_VERS = 2.0
CREATION_DATE  = 
ORIGINATOR     = 

OBJECT_NAME    = STARLINK-36641
OBJECT_ID      = 2026-018A
CENTER_NAME    = EARTH
REF_FRAME      = TEME
TIME_SYSTEM    = UTC
MEAN_ELEMENT_THEORY = SGP/SGP4

EPOCH          = 2026-02-17T19:11:55.306752
MEAN_MOTION    = 15.75219300
ECCENTRICITY   = .0001083
INCLINATION    = 97.2841
RA_OF_ASC_NODE = 113.5781
ARG_OF_PERICENTER = 83.2372
MEAN_ANOMALY   = 276.9016

EPHEMERIS_TYPE = 0
CLASSIFICATION_TYPE = U
NORAD_CAT_ID   = 67589
ELEMENT_SET_NO = 999
REV_AT_EPOCH   = 417
BSTAR          = .80186E-3
MEAN_MOTION_DOT = .121338E-2
MEAN_MOTION_DDOT = 0

CCSDS_OMM_VERS = 2.0
CREATION_DATE  = 
ORIGINATOR     = 

OBJECT_NAME    = STARLINK-36376
OBJECT_ID      = 2026-018B
CENTER_NAME    = EARTH
REF_FRAME      = TEME
TIME_SYSTEM    = UTC
MEAN_ELEMENT_THEORY = SGP/SGP4

EPOCH          = 2026-02-17T20:00:01.999008
MEAN_MOTION    = 15.78086088
ECCENTRICITY   = .0001617
INCLINATION    = 97.2843
RA_OF_ASC_NODE = 113.6565
ARG_OF_PERICENTER = 91.7388
MEAN_ANOMALY   = 196.2533

EPHEMERIS_TYPE = 0
CLASSIFICATION_TYPE = U
NORAD_CAT_ID   = 67590
ELEMENT_SET_NO = 999
REV_AT_EPOCH   = 420
BSTAR          = -.13466E-1
MEAN_MOTION_DOT = -.1978112E-1
MEAN_MOTION_DDOT = 0

CCSDS_OMM_VERS = 2.0
CREATION_DATE  = 
ORIGINATOR     = 

OBJECT_NAME    = STARLINK-36391
OBJECT_ID      = 2026-018C
CENTER_NAME    = EARTH
REF_FRAME      = TEME
TIME_SYSTEM    = UTC
MEAN_ELEMENT_THEORY = SGP/SGP4

EPOCH          = 2026-02-17T18:44:43.914912
MEAN_MOTION    = 15.80893703
ECCENTRICITY   = .0001369
INCLINATION    = 97.2839
RA_OF_ASC_NODE = 113.6041
ARG_OF_PERICENTER = 24.1871
MEAN_ANOMALY   = 335.9462

EPHEMERIS_TYPE = 0
CLASSIFICATION_TYPE = U
NORAD_CAT_ID   = 67591
ELEMENT_SET_NO = 999
REV_AT_EPOCH   = 417
BSTAR          = .10361E-2
MEAN_MOTION_DOT = .203748E-2
MEAN_MOTION_DDOT = 0

CCSDS_OMM_VERS = 2.0
CREATION_DATE  = 
ORIGINATOR     = 

OBJECT_NAME    = STARLINK-36603
OBJECT_ID      = 2026-018D
CENTER_NAME    = EARTH
REF_FRAME      = TEME
TIME_SYSTEM    = UTC
MEAN_ELEMENT_THEORY = SGP/SGP4

EPOCH          = 2026-02-17T18:43:39.891648
MEAN_MOTION    = 15.80864281
ECCENTRICITY   = .0001405
INCLINATION    = 97.2840
RA_OF_ASC_NODE = 113.6054
ARG_OF_PERICENTER = 51.7198
MEAN_ANOMALY   = 308.4197

EPHEMERIS_TYPE = 0
CLASSIFICATION_TYPE = U
NORAD_CAT_ID   = 67592
ELEMENT_SET_NO = 999
REV_AT_EPOCH   = 417
BSTAR          = .87135E-3
MEAN_MOTION_DOT = .170438E-2
MEAN_MOTION_DDOT = 0

CCSDS_OMM_VERS = 2.0
CREATION_DATE  = 
ORIGINATOR     = 

OBJECT_NAME    = STARLINK-36634
OBJECT_ID      = 2026-018E
CENTER_NAME    = EARTH
REF_FRAME      = TEME
TIME_SYSTEM    = UTC
MEAN_ELEMENT_THEORY = SGP/SGP4

EPOCH          = 2026-02-17T18:42:00.483264
MEAN_MOTION    = 15.80853238
ECCENTRICITY   = .0001272
INCLINATION    = 97.2838
RA_OF_ASC_NODE = 113.6068
ARG_OF_PERICENTER = 54.8255
MEAN_ANOMALY   = 305.3132

EPHEMERIS_TYPE = 0
CLASSIFICATION_TYPE = U
NORAD_CAT_ID   = 67593
ELEMENT_SET_NO = 999
REV_AT_EPOCH   = 417
BSTAR          = .82488E-3
MEAN_MOTION_DOT = .161086E-2
MEAN_MOTION_DDOT = 0

CCSDS_OMM_VERS = 2.0
CREATION_DATE  = 
ORIGINATOR     = 

OBJECT_NAME    = STARLINK-36638
OBJECT_ID      = 2026-018F
CENTER_NAME    = EARTH
REF_FRAME      = TEME
TIME_SYSTEM    = UTC
MEAN_ELEMENT_THEORY = SGP/SGP4

EPOCH          = 2026-02-17T18:40:24.785760
MEAN_MOTION    = 15.80850668
ECCENTRICITY   = .0001673
INCLINATION    = 97.2840
RA_OF_ASC_NODE = 113.6083
ARG_OF_PERICENTER = 44.1201
MEAN_ANOMALY   = 316.0201

EPHEMERIS_TYPE = 0
CLASSIFICATION_TYPE = U
NORAD_CAT_ID   = 67594
ELEMENT_SET_NO = 999
REV_AT_EPOCH   = 417
BSTAR          = .8219E-3
MEAN_MOTION_DOT = .160475E-2
MEAN_MOTION_DDOT = 0

CCSDS_OMM_VERS = 2.0
CREATION_DATE  = 
ORIGINATOR     = 

OBJECT_NAME    = STARLINK-36628
OBJECT_ID      = 2026-018G
CENTER_NAME    = EARTH
REF_FRAME      = TEME
TIME_SYSTEM    = UTC
MEAN_ELEMENT_THEORY = SGP/SGP4

EPOCH          = 2026-02-17T20:00:01.999008
MEAN_MOTION    = 15.75194332
ECCENTRICITY   = .0001003
INCLINATION    = 97.2851
RA_OF_ASC_NODE = 113.6440
ARG_OF_PERICENTER = 113.0694
MEAN_ANOMALY   = 146.3801

EPHEMERIS_TYPE = 0
CLASSIFICATION_TYPE = U
NORAD_CAT_ID   = 67595
ELEMENT_SET_NO = 999
REV_AT_EPOCH   = 415
BSTAR          = .20393E-3
MEAN_MOTION_DOT = .30401E-3
MEAN_MOTION_DDOT = 0

