STARLINK-36609          
1 67582U 26016X   26048.63184929  .00097770  00000+0  64823-3 0  9990
2 67582  97.2832 108.0923 0001395 122.8610 237.2790 15.75213048  3641
STARLINK-36577          
1 67583U 26016Y   26048.60223806  .00237443  00000+0  12022-2 0  9992
2 67583  97.2840 108.1333 0002185  66.0553 294.0944 15.80901162  3649
STARLINK-36419          
1 67584U 26016Z   26048.58335648 -.00558823  00000+0 -39459-2 0  9991
2 67584  97.2849 108.1207 0001719  98.6433 166.5251 15.75478233  4815
STARLINK-36560          
1 67585U 26016AA  26048.53322269  .00194984  00000+0  99432-3 0  9992
2 67585  97.2848 108.0746 0002300  34.5492 325.5925 15.80854255  3635
NAVSTAR 85 (USA 581)    
1 67588U 26017A   26048.53936881  .00000028  00000+0  00000+0 0  9991
2 67588  55.0081  93.5564 0000946  45.2724 314.8210  2.00561228429213
STARLINK-36641          
1 67589U 26018A   26048.79994568  .00121338  00000+0  80186-3 0  9992
2 67589  97.2841 113.5781 0001083  83.2372 276.9016 15.75219300  4177
STARLINK-36376          
1 67590U 26018B   26048.83335647 -.01978112  00000+0 -13466-1 0  9994
2 67590  97.2843 113.6565 0001617  91.7388 196.2533 15.78086088  4206
STARLINK-36391          
1 67591U 26018C   26048.78106383  .00203748  00000+0  10361-2 0  9997
2 67591  97.2839 113.6041 0001369  24.1871 335.9462 15.80893703  4174
STARLINK-36603          
1 67592U 26018D   26048.78032282  .00170438  00000+0  87135-3 0  9997
2 67592  97.2840 113.6054 0001405  51.7198 308.4197 15.80864281  4179
STARLINK-36634          
1 67593U 26018E   26048.77917226  .00161086  00000+0  82488-3 0  9992
2 67593  97.2838 113.6068 0001272  54.8255 305.3132 15.80853238  4177
STARLINK-36638          
1 67594U 26018F   26048.77806465  .00160475  00000+0  82190-3 0  9996
2 67594  97.2840 113.6083 0001673  44.1201 316.0201 15.80850668  4176
STARLINK-36628          
1 67595U 26018G   26048.83335647  .00030401  00000+0  20393-3 0  9995
2 67595  97.2851 113.6440 0001003 113.0694 146.3801 15.75194332  4156
